[
    {
        "CCSDS_OMM_VERS": "3.0",
        "COMMENT": "GENERATED VIA SPACE-TRACK.ORG API",
        "CREATION_DATE": "2025-04-14T03:05:54",
        "ORIGINATOR": "18 SPCS",
        "OBJECT_NAME": "BEIDOU 3M10",
        "OBJECT_ID": "2018-062B",
        "CENTER_NAME": "EARTH",
        "REF_FRAME": "TEME",
        "TIME_SYSTEM": "UTC",
        "MEAN_ELEMENT_THEORY": "SGP4",
        "EPOCH": "2025-04-12T20:52:32.479968",
        "MEAN_MOTION": "1.86229605",
        "ECCENTRICITY": "0.00048770",
        "INCLINATION": "54.1025",
        "RA_OF_ASC_NODE": "196.9244",
        "ARG_OF_PERICENTER": "29.0411",
        "MEAN_ANOMALY": "331.0176",
        "EPHEMERIS_TYPE": "0",
        "CLASSIFICATION_TYPE": "U",
        "NORAD_CAT_ID": "43582",
        "ELEMENT_SET_NO": "999",
        "REV_AT_EPOCH": "4562",
        "BSTAR": "0.00000000000000",
        "MEAN_MOTION_DOT": "0.00000010",
        "MEAN_MOTION_DDOT": "0.0000000000000",
        "SEMIMAJOR_AXIS": "27906.328",
        "PERIOD": "773.239",
        "APOAPSIS": "21541.803",
        "PERIAPSIS": "21514.583",
        "OBJECT_TYPE": "PAYLOAD",
        "RCS_SIZE": "LARGE",
        "COUNTRY_CODE": "PRC",
        "LAUNCH_DATE": "2018-07-29",
        "SITE": "XSC",
        "DECAY_DATE": null,
        "FILE": "4701263",
        "GP_ID": "285538986",
        "TLE_LINE0": "0 BEIDOU 3M10",
        "TLE_LINE1": "1 43582U 18062B   25102.86982037  .00000010  00000-0  00000-0 0  9993",
        "TLE_LINE2": "2 43582  54.1025 196.9244 0004877  29.0411 331.0176  1.86229605 45626"
    }
]